{
  "type": "FeatureCollection",
  "features": [
    {
      "type": "Feature",
      "properties": {
        "norad_id": 30606,
        "name": "FENGYUN 1C DEB",
        "group": "fengyun-1c-debris",
        "lat": 19.465231879858816,
        "lon": 7.111924186496589,
        "alt_km": 660.0425671178336,
        "timestamp": "2025-12-26T04:40:06.064044+00:00",
        "meta_object_name": "FENGYUN 1C DEB",
        "meta_object_id": "1999-025AMM",
        "meta_epoch": "2025-12-25T23:46:25.184928",
        "meta_mean_motion": 14.57722983,
        "meta_eccentricity": 0.0214343,
        "meta_inclination": 98.0958,
        "meta_ra_of_asc_node": 9.797,
        "meta_arg_of_pericenter": 96.0691,
        "meta_mean_anomaly": 296.4501,
        "meta_ephemeris_type": 0,
        "meta_classification_type": "U",
        "meta_norad_cat_id": 30606,
        "meta_element_set_no": 999,
        "meta_rev_at_epoch": 99435,
        "meta_bstar": 0.00058728544,
        "meta_mean_motion_dot": 3.63e-05,
        "meta_mean_motion_ddot": 0,
        "tle_line1": "1 30606U 99025AMM 25359.99056927  .00003630  00000+0  58729-3 0  9996",
        "tle_line2": "2 30606  98.0958   9.7970 0214343  96.0691 296.4501 14.57722983994351"
      },
      "geometry": {
        "type": "Point",
        "coordinates": [
          7.111924186496589,
          19.465231879858816
        ]
      }
    },
    {
      "type": "Feature",
      "properties": {
        "norad_id": 30608,
        "name": "FENGYUN 1C DEB",
        "group": "fengyun-1c-debris",
        "lat": 39.8626569403765,
        "lon": -109.81557322376244,
        "alt_km": 781.7173723668393,
        "timestamp": "2025-12-26T04:40:06.064055+00:00",
        "meta_object_name": "FENGYUN 1C DEB",
        "meta_object_id": "1999-025AMP",
        "meta_epoch": "2025-12-25T18:27:57.132000",
        "meta_mean_motion": 14.28547373,
        "meta_eccentricity": 0.00163665,
        "meta_inclination": 98.7087,
        "meta_ra_of_asc_node": 62.4069,
        "meta_arg_of_pericenter": 142.7271,
        "meta_mean_anomaly": 331.8024,
        "meta_ephemeris_type": 0,
        "meta_classification_type": "U",
        "meta_norad_cat_id": 30608,
        "meta_element_set_no": 999,
        "meta_rev_at_epoch": 97625,
        "meta_bstar": 0.0011791323,
        "meta_mean_motion_dot": 2.917e-05,
        "meta_mean_motion_ddot": 0,
        "tle_line1": "1 30608U 99025AMP 25359.76941125  .00002917  00000+0  11791-2 0  9990",
        "tle_line2": "2 30608  98.7087  62.4069 0016366 142.7271 331.8024 14.28547373976255"
      },
      "geometry": {
        "type": "Point",
        "coordinates": [
          -109.81557322376244,
          39.8626569403765
        ]
      }
    },
    {
      "type": "Feature",
      "properties": {
        "norad_id": 30609,
        "name": "FENGYUN 1C DEB",
        "group": "fengyun-1c-debris",
        "lat": -80.83095459139814,
        "lon": -14.699646994526029,
        "alt_km": 879.0836769239959,
        "timestamp": "2025-12-26T04:40:06.064065+00:00",
        "meta_object_name": "FENGYUN 1C DEB",
        "meta_object_id": "1999-025AMQ",
        "meta_epoch": "2025-12-24T05:25:59.119680",
        "meta_mean_motion": 14.11312216,
        "meta_eccentricity": 0.01199952,
        "meta_inclination": 98.5695,
        "meta_ra_of_asc_node": 274.3247,
        "meta_arg_of_pericenter": 20.8022,
        "meta_mean_anomaly": 339.7974,
        "meta_ephemeris_type": 0,
        "meta_classification_type": "U",
        "meta_norad_cat_id": 30609,
        "meta_element_set_no": 999,
        "meta_rev_at_epoch": 95890,
        "meta_bstar": 0.0026849985,
        "meta_mean_motion_dot": 5.153e-05,
        "meta_mean_motion_ddot": 0,
        "tle_line1": "1 30609U 99025AMQ 25358.22637870  .00005153  00000+0  26850-2 0  9997",
        "tle_line2": "2 30609  98.5695 274.3247 0119995  20.8022 339.7974 14.11312216958904"
      },
      "geometry": {
        "type": "Point",
        "coordinates": [
          -14.699646994526029,
          -80.83095459139814
        ]
      }
    },
    {
      "type": "Feature",
      "properties": {
        "norad_id": 30612,
        "name": "FENGYUN 1C DEB",
        "group": "fengyun-1c-debris",
        "lat": -29.01260488383452,
        "lon": 167.2710461066587,
        "alt_km": 474.3041963193218,
        "timestamp": "2025-12-26T04:40:06.064076+00:00",
        "meta_object_name": "FENGYUN 1C DEB",
        "meta_object_id": "1999-025AMT",
        "meta_epoch": "2025-12-25T11:10:41.898144",
        "meta_mean_motion": 15.32442726,
        "meta_eccentricity": 0.0024848,
        "meta_inclination": 99.082,
        "meta_ra_of_asc_node": 351.4678,
        "meta_arg_of_pericenter": 303.1499,
        "meta_mean_anomaly": 208.3193,
        "meta_ephemeris_type": 0,
        "meta_classification_type": "U",
        "meta_norad_cat_id": 30612,
        "meta_element_set_no": 999,
        "meta_rev_at_epoch": 452,
        "meta_bstar": 0.0037124,
        "meta_mean_motion_dot": 0.00119031,
        "meta_mean_motion_ddot": 0,
        "tle_line1": "1 30612U 99025AMT 25359.46576271  .00119031  00000+0  37124-2 0  9992",
        "tle_line2": "2 30612  99.0820 351.4678 0024848 303.1499 208.3193 15.32442726  4524"
      },
      "geometry": {
        "type": "Point",
        "coordinates": [
          167.2710461066587,
          -29.01260488383452
        ]
      }
    },
    {
      "type": "Feature",
      "properties": {
        "norad_id": 30613,
        "name": "FENGYUN 1C DEB",
        "group": "fengyun-1c-debris",
        "lat": 70.22477301837037,
        "lon": 97.28569225673373,
        "alt_km": 471.87556970308196,
        "timestamp": "2025-12-26T04:40:06.064087+00:00",
        "meta_object_name": "FENGYUN 1C DEB",
        "meta_object_id": "1999-025AMU",
        "meta_epoch": "2025-12-25T20:27:10.587168",
        "meta_mean_motion": 15.1987515,
        "meta_eccentricity": 0.00599436,
        "meta_inclination": 98.3065,
        "meta_ra_of_asc_node": 120.8858,
        "meta_arg_of_pericenter": 121.9379,
        "meta_mean_anomaly": 238.7702,
        "meta_ephemeris_type": 0,
        "meta_classification_type": "U",
        "meta_norad_cat_id": 30613,
        "meta_element_set_no": 999,
        "meta_rev_at_epoch": 99595,
        "meta_bstar": 0.004500504,
        "meta_mean_motion_dot": 0.00102512,
        "meta_mean_motion_ddot": 0,
        "tle_line1": "1 30613U 99025AMU 25359.85220587  .00102512  00000+0  45005-2 0  9995",
        "tle_line2": "2 30613  98.3065 120.8858 0059943 121.9379 238.7702 15.19875150995958"
      },
      "geometry": {
        "type": "Point",
        "coordinates": [
          97.28569225673373,
          70.22477301837037
        ]
      }
    },
    {
      "type": "Feature",
      "properties": {
        "norad_id": 30616,
        "name": "FENGYUN 1C DEB",
        "group": "fengyun-1c-debris",
        "lat": -22.12737872073274,
        "lon": 59.91873190410793,
        "alt_km": 1243.1624059702954,
        "timestamp": "2025-12-26T04:40:06.064097+00:00",
        "meta_object_name": "FENGYUN 1C DEB",
        "meta_object_id": "1999-025AMX",
        "meta_epoch": "2025-12-25T14:24:23.518080",
        "meta_mean_motion": 13.36050195,
        "meta_eccentricity": 0.0381656,
        "meta_inclination": 98.6413,
        "meta_ra_of_asc_node": 55.869,
        "meta_arg_of_pericenter": 223.7679,
        "meta_mean_anomaly": 133.261,
        "meta_ephemeris_type": 0,
        "meta_classification_type": "U",
        "meta_norad_cat_id": 30616,
        "meta_element_set_no": 999,
        "meta_rev_at_epoch": 91872,
        "meta_bstar": 0.0017371,
        "meta_mean_motion_dot": 1.313e-05,
        "meta_mean_motion_ddot": 0,
        "tle_line1": "1 30616U 99025AMX 25359.60027220  .00001313  00000+0  17371-2 0  9992",
        "tle_line2": "2 30616  98.6413  55.8690 0381656 223.7679 133.2610 13.36050195918723"
      },
      "geometry": {
        "type": "Point",
        "coordinates": [
          59.91873190410793,
          -22.12737872073274
        ]
      }
    },
    {
      "type": "Feature",
      "properties": {
        "norad_id": 30619,
        "name": "FENGYUN 1C DEB",
        "group": "fengyun-1c-debris",
        "lat": -30.76595068161422,
        "lon": 27.719728339615216,
        "alt_km": 658.1410054706812,
        "timestamp": "2025-12-26T04:40:06.064108+00:00",
        "meta_object_name": "FENGYUN 1C DEB",
        "meta_object_id": "1999-025ANA",
        "meta_epoch": "2025-12-25T13:48:38.766816",
        "meta_mean_motion": 14.41126958,
        "meta_eccentricity": 0.0215224,
        "meta_inclination": 98.2946,
        "meta_ra_of_asc_node": 22.1363,
        "meta_arg_of_pericenter": 19.8397,
        "meta_mean_anomaly": 341.1004,
        "meta_ephemeris_type": 0,
        "meta_classification_type": "U",
        "meta_norad_cat_id": 30619,
        "meta_element_set_no": 999,
        "meta_rev_at_epoch": 99134,
        "meta_bstar": 0.00032675,
        "meta_mean_motion_dot": 1.336e-05,
        "meta_mean_motion_ddot": 0,
        "tle_line1": "1 30619U 99025ANA 25359.57544869  .00001336  00000+0  32675-3 0  9994",
        "tle_line2": "2 30619  98.2946  22.1363 0215224  19.8397 341.1004 14.41126958991349"
      },
      "geometry": {
        "type": "Point",
        "coordinates": [
          27.719728339615216,
          -30.76595068161422
        ]
      }
    }
  ]
}